COMMENT,ORIGINATOR,NORAD_CAT_ID,OBJECT_NAME,OBJECT_TYPE,CLASSIFICATION_TYPE,INTLDES,EPOCH,EPOCH_MICROSECONDS,MEAN_MOTION,ECCENTRICITY,INCLINATION,RA_OF_ASC_NODE,ARG_OF_PERICENTER,MEAN_ANOMALY,EPHEMERIS_TYPE,ELEMENT_SET_NO,REV_AT_EPOCH,BSTAR,MEAN_MOTION_DOT,MEAN_MOTION_DDOT,FILE,TLE_LINE0,TLE_LINE1,TLE_LINE2,OBJECT_ID,OBJECT_NUMBER,SEMIMAJOR_AXIS,PERIOD,APOGEE,PERIGEE,DECAYED
"GENERATED VIA SPACETRACK.ORG API","18 SPCS","55101","SPACEBEE-159","PAYLOAD","U","23001CW","2023-01-18 19:12:13","135392","15.14176784","0.0018069","97.5015","80.6905","156.5545","203.6515","0","999","245","0.0015413","0.00028252","0","3754021","0 SPACEBEE-159","1 55101U 23001CW  23018.80015203  .00028252  00000-0  15413-2 0  9996","2 55101  97.5015  80.6905 0018069 156.5545 203.6515 15.14176784  2451","2023-001CW","55101","6901.616","95.101","535.951","511.010","0"
"GENERATED VIA SPACETRACK.ORG API","18 SPCS","55101","SPACEBEE-159","PAYLOAD","U","23001CW","2023-01-18 20:47:22","876800","15.14176677","0.0018058","97.5015","80.7556","156.2805","203.9263","0","999","246","0.0013804","0.00025285","0","3754254","0 SPACEBEE-159","1 55101U 23001CW  23018.86623700  .00025285  00000-0  13804-2 0  9994","2 55101  97.5015  80.7556 0018058 156.2805 203.9263 15.14176677  2463","2023-001CW","55101","6901.616","95.101","535.944","511.018","0"
"GENERATED VIA SPACETRACK.ORG API","18 SPCS","55101","SPACEBEE-159","PAYLOAD","U","23001CW","2023-01-19 07:53:30","548256","15.14193764","0.0018024","97.5016","81.2113","155.0227","205.188","0","999","253","0.0010793","0.0001975","0","3754935","0 SPACEBEE-159","1 55101U 23001CW  23019.32882579  .00019750  00000-0  10793-2 0  9991","2 55101  97.5016  81.2113 0018024 155.0227 205.1880 15.14193764  2530","2023-001CW","55101","6901.564","95.100","535.869","510.990","0"
"GENERATED VIA SPACETRACK.ORG API","18 SPCS","55101","SPACEBEE-159","PAYLOAD","U","23001CW","2023-01-19 12:38:59","375040","15.14206674","0.0018114","97.5015","81.4068","154.2433","205.9705","0","999","256","0.001341","0.00024581","0","3754973","0 SPACEBEE-159","1 55101U 23001CW  23019.52707610  .00024581  00000-0  13410-2 0  9992","2 55101  97.5015  81.4068 0018114 154.2433 205.9705 15.14206674  2562","2023-001CW","55101","6901.525","95.099","535.892","510.889","0"
"GENERATED VIA SPACETRACK.ORG API","18 SPCS","55101","SPACEBEE-159","PAYLOAD","U","23001CW","2023-01-20 01:20:15","687168","15.14232731","0.0018172","97.5014","81.9276","152.4391","207.7809","0","999","264","0.0014054","0.00025788","0","3755581","0 SPACEBEE-159","1 55101U 23001CW  23020.05573712  .00025788  00000-0  14054-2 0  9991","2 55101  97.5014  81.9276 0018172 152.4391 207.7809 15.14232731  2641","2023-001CW","55101","6901.446","95.098","535.852","510.770","0"
"GENERATED VIA SPACETRACK.ORG API","18 SPCS","55101","SPACEBEE-159","PAYLOAD","U","23001CW","2023-01-20 07:40:53","581440","15.14242116","0.0018211","97.501","82.1873","151.6754","208.5472","0","999","268","0.0011932","0.00021879","0","3755973","0 SPACEBEE-159","1 55101U 23001CW  23020.32006460  .00021879  00000-0  11932-2 0  9991","2 55101  97.5010  82.1873 0018211 151.6754 208.5472 15.14242116  2688","2023-001CW","55101","6901.417","95.097","535.851","510.714","0"
"GENERATED VIA SPACETRACK.ORG API","18 SPCS","55101","SPACEBEE-159","PAYLOAD","U","23001CW","2023-01-21 05:53:04","933536","15.14284121","0.0018278","97.501","83.0996","148.4623","211.7708","0","999","282","0.0012841","0.00023585","0","3756809","0 SPACEBEE-159","1 55101U 23001CW  23021.24519599  .00023585  00000-0  12841-2 0  9991","2 55101  97.5010  83.0996 0018278 148.4623 211.7708 15.14284121  2822","2023-001CW","55101","6901.290","95.094","535.769","510.541","0"
"GENERATED VIA SPACETRACK.ORG API","18 SPCS","55101","SPACEBEE-159","PAYLOAD","U","23001CW","2023-01-22 13:36:08","463168","15.14346793","0.0018515","97.5005","84.4013","143.8696","216.3791","0","999","302","0.0011686","0.00021492","0","3757931","0 SPACEBEE-159","1 55101U 23001CW  23022.56676462  .00021492  00000-0  11686-2 0  9991","2 55101  97.5005  84.4013 0018515 143.8696 216.3791 15.14346793  3024","2023-001CW","55101","6901.099","95.091","535.742","510.187","0"
"GENERATED VIA SPACETRACK.ORG API","18 SPCS","55101","SPACEBEE-159","PAYLOAD","U","23001CW","2023-01-23 18:08:49","860960","15.14397445","0.0018637","97.5","85.5734","139.8653","220.3959","0","999","320","0.001126","0.00020735","0","3759185","0 SPACEBEE-159","1 55101U 23001CW  23023.75613265  .00020735  00000-0  11260-2 0  9992","2 55101  97.5000  85.5734 0018637 139.8653 220.3959 15.14397445  3205","2023-001CW","55101","6900.945","95.087","535.672","509.949","0"
"GENERATED VIA SPACETRACK.ORG API","18 SPCS","55101","SPACEBEE-159","PAYLOAD","U","23001CW","2023-01-24 19:31:10","443648","15.14440484","0.0018677","97.4995","86.6153","136.5748","223.6958","0","999","336","0.0010966","0.00020215","0","3760227","0 SPACEBEE-159","1 55101U 23001CW  23024.81331532  .00020215  00000-0  10966-2 0  9999","2 55101  97.4995  86.6153 0018677 136.5748 223.6958 15.14440484  3361","2023-001CW","55101","6900.815","95.085","535.568","509.791","0"
"GENERATED VIA SPACETRACK.ORG API","18 SPCS","55101","SPACEBEE-159","PAYLOAD","U","23001CW","2023-01-25 12:57:45","743328","15.14464769","0.0018724","97.4993","87.3316","134.3316","225.9454","0","999","347","0.00096139","0.00017721","0","3761297","0 SPACEBEE-159","1 55101U 23001CW  23025.54011277  .00017721  00000-0  96139-3 0  9996","2 55101  97.4993  87.3316 0018724 134.3316 225.9454 15.14464769  3478","2023-001CW","55101","6900.741","95.083","535.527","509.685","0"
"GENERATED VIA SPACETRACK.ORG API","18 SPCS","55101","SPACEBEE-159","PAYLOAD","U","23001CW","2023-01-25 19:18:20","134944","15.14475071","0.0018712","97.4993","87.5921","133.5429","226.7361","0","999","351","0.0010144","0.00018709","0","3761360","0 SPACEBEE-159","1 55101U 23001CW  23025.80439971  .00018709  00000-0  10144-2 0  9998","2 55101  97.4993  87.5921 0018712 133.5429 226.7361 15.14475071  3514","2023-001CW","55101","6900.710","95.082","535.487","509.662","0"
"GENERATED VIA SPACETRACK.ORG API","18 SPCS","55101","SPACEBEE-159","PAYLOAD","U","23001CW","2023-01-25 22:28:37","261632","15.14481045","0.0018738","97.4992","87.7224","133.2043","227.0758","0","999","353","0.0010723","0.00019788","0","3761354","0 SPACEBEE-159","1 55101U 23001CW  23025.93654238  .00019788  00000-0  10723-2 0  9998","2 55101  97.4992  87.7224 0018738 133.2043 227.0758 15.14481045  3532","2023-001CW","55101","6900.692","95.082","535.487","509.626","0"
"GENERATED VIA SPACETRACK.ORG API","18 SPCS","55101","SPACEBEE-159","PAYLOAD","U","23001CW","2023-01-26 12:44:54","9024","15.14499689","0.0018651","97.4994","88.3087","131.4442","228.8395","0","999","362","0.0010039","0.00018527","0","3761951","0 SPACEBEE-159","1 55101U 23001CW  23026.53118066  .00018527  00000-0  10039-2 0  9999","2 55101  97.4994  88.3087 0018651 131.4442 228.8395 15.14499689  3624","2023-001CW","55101","6900.635","95.081","535.370","509.630","0"
"GENERATED VIA SPACETRACK.ORG API","18 SPCS","55101","SPACEBEE-159","PAYLOAD","U","23001CW","2023-01-26 23:50:53","192544","15.14516386","0.0018734","97.4992","88.7641","129.902","230.3862","0","999","369","0.0010094","0.00018639","0","3762351","0 SPACEBEE-159","1 55101U 23001CW  23026.99367121  .00018639  00000-0  10094-2 0  9992","2 55101  97.4992  88.7641 0018734 129.9020 230.3862 15.14516386  3696","2023-001CW","55101","6900.584","95.080","535.377","509.522","0"
"GENERATED VIA SPACETRACK.ORG API","18 SPCS","55101","SPACEBEE-159","PAYLOAD","U","23001CW","2023-01-27 12:32:00","334176","15.14532876","0.0018786","97.4992","89.2848","128.1693","232.1235","0","999","377","0.00092018","0.0001699","0","3762956","0 SPACEBEE-159","1 55101U 23001CW  23027.52222609  .00016990  00000-0  92018-3 0  9998","2 55101  97.4992  89.2848 0018786 128.1693 232.1235 15.14532876  3770","2023-001CW","55101","6900.534","95.079","535.362","509.436","0"
"GENERATED VIA SPACETRACK.ORG API","18 SPCS","55101","SPACEBEE-159","PAYLOAD","U","23001CW","2023-01-27 20:27:42","30720","15.14543563","0.0018788","97.4993","89.6105","127.1062","233.1891","0","999","382","0.00090318","0.00016679","0","3763218","0 SPACEBEE-159","1 55101U 23001CW  23027.85256980  .00016679  00000-0  90318-3 0  9998","2 55101  97.4993  89.6105 0018788 127.1062 233.1891 15.14543563  3822","2023-001CW","55101","6900.502","95.078","535.331","509.402","0"
"GENERATED VIA SPACETRACK.ORG API","18 SPCS","55101","SPACEBEE-159","PAYLOAD","U","23001CW","2023-01-28 05:58:31","840896","15.14553619","0.001882","97.4993","90.0015","125.8117","234.4868","0","999","388","0.00078222","0.00014436","0","3763597","0 SPACEBEE-159","1 55101U 23001CW  23028.24897964  .00014436  00000-0  78222-3 0  9994","2 55101  97.4993  90.0015 0018820 125.8117 234.4868 15.14553619  3888","2023-001CW","55101","6900.471","95.078","535.323","509.349","0"
"GENERATED VIA SPACETRACK.ORG API","18 SPCS","55101","SPACEBEE-159","PAYLOAD","U","23001CW","2023-01-28 13:54:13","78656","15.14564569","0.0018933","97.4994","90.3268","124.8158","235.4858","0","999","393","0.00078047","0.00014409","0","3763924","0 SPACEBEE-159","1 55101U 23001CW  23028.57931804  .00014409  00000-0  78047-3 0  9997","2 55101  97.4994  90.3268 0018933 124.8158 235.4858 15.14564569  3933","2023-001CW","55101","6900.438","95.077","535.367","509.238","0"
"GENERATED VIA SPACETRACK.ORG API","18 SPCS","55101","SPACEBEE-159","PAYLOAD","U","23001CW","2023-01-28 20:14:45","977280","15.14571846","0.0018936","97.4995","90.5877","123.9231","236.3805","0","999","397","0.00075668","0.0001397","0","3764201","0 SPACEBEE-159","1 55101U 23001CW  23028.84358770  .00013970  00000-0  75668-3 0  9990","2 55101  97.4995  90.5877 0018936 123.9231 236.3805 15.14571846  3979","2023-001CW","55101","6900.416","95.076","535.347","509.214","0"
